{
  "type": "FeatureCollection",
  "features": [
    {
      "type": "Feature",
      "properties": {
        "norad_id": 34875,
        "name": "COSMOS 2251 DEB",
        "group": "cosmos-2251-debris",
        "lat": -71.80663966857928,
        "lon": 91.97561227962638,
        "alt_km": 724.5968462720648,
        "timestamp": "2025-12-15T19:00:45.754034+00:00",
        "meta_object_name": "COSMOS 2251 DEB",
        "meta_object_id": "1993-036ACN",
        "meta_epoch": "2025-12-14T22:33:41.164992",
        "meta_mean_motion": 14.48933772,
        "meta_eccentricity": 0.00161632,
        "meta_inclination": 74.0438,
        "meta_ra_of_asc_node": 154.0924,
        "meta_arg_of_pericenter": 277.5949,
        "meta_mean_anomaly": 238.1777,
        "meta_ephemeris_type": 0,
        "meta_classification_type": "U",
        "meta_norad_cat_id": 34875,
        "meta_element_set_no": 999,
        "meta_rev_at_epoch": 87787,
        "meta_bstar": 0.00042314776,
        "meta_mean_motion_dot": 1.578e-05,
        "meta_mean_motion_ddot": 0,
        "tle_line1": "1 34875U 93036ACN 25348.94005978  .00001578  00000+0  42315-3 0  9990",
        "tle_line2": "2 34875  74.0438 154.0924 0016163 277.5949 238.1777 14.48933772877870"
      },
      "geometry": {
        "type": "Point",
        "coordinates": [
          91.97561227962638,
          -71.80663966857928
        ]
      }
    },
    {
      "type": "Feature",
      "properties": {
        "norad_id": 34878,
        "name": "COSMOS 2251 DEB",
        "group": "cosmos-2251-debris",
        "lat": -25.333414934325894,
        "lon": 34.65678058203208,
        "alt_km": 888.8816203561937,
        "timestamp": "2025-12-15T19:00:45.754045+00:00",
        "meta_object_name": "COSMOS 2251 DEB",
        "meta_object_id": "1993-036ACR",
        "meta_epoch": "2025-12-14T03:58:57.121824",
        "meta_mean_motion": 13.44193143,
        "meta_eccentricity": 0.04354176,
        "meta_inclination": 73.965,
        "meta_ra_of_asc_node": 45.0605,
        "meta_arg_of_pericenter": 28.3042,
        "meta_mean_anomaly": 2.4735,
        "meta_ephemeris_type": 0,
        "meta_classification_type": "U",
        "meta_norad_cat_id": 34878,
        "meta_element_set_no": 999,
        "meta_rev_at_epoch": 81292,
        "meta_bstar": 0.00074055202,
        "meta_mean_motion_dot": 7.4e-06,
        "meta_mean_motion_ddot": 0,
        "tle_line1": "1 34878U 93036ACR 25348.16593891  .00000740  00000+0  74055-3 0  9999",
        "tle_line2": "2 34878  73.9650  45.0605 0435417  28.3042   2.4735 13.44193143812921"
      },
      "geometry": {
        "type": "Point",
        "coordinates": [
          34.65678058203208,
          -25.333414934325894
        ]
      }
    },
    {
      "type": "Feature",
      "properties": {
        "norad_id": 34882,
        "name": "COSMOS 2251 DEB",
        "group": "cosmos-2251-debris",
        "lat": 1.2829129899969594,
        "lon": -139.87606416323666,
        "alt_km": 634.0522036963694,
        "timestamp": "2025-12-15T19:00:45.754055+00:00",
        "meta_object_name": "COSMOS 2251 DEB",
        "meta_object_id": "1993-036ACV",
        "meta_epoch": "2025-12-12T15:26:33.087264",
        "meta_mean_motion": 14.61597611,
        "meta_eccentricity": 0.00828094,
        "meta_inclination": 74.0462,
        "meta_ra_of_asc_node": 225.7751,
        "meta_arg_of_pericenter": 352.7324,
        "meta_mean_anomaly": 7.2634,
        "meta_ephemeris_type": 0,
        "meta_classification_type": "U",
        "meta_norad_cat_id": 34882,
        "meta_element_set_no": 999,
        "meta_rev_at_epoch": 88523,
        "meta_bstar": 0.00026902724,
        "meta_mean_motion_dot": 1.371e-05,
        "meta_mean_motion_ddot": 0,
        "tle_line1": "1 34882U 93036ACV 25346.64343851  .00001371  00000+0  26903-3 0  9994",
        "tle_line2": "2 34882  74.0462 225.7751 0082809 352.7324   7.2634 14.61597611885231"
      },
      "geometry": {
        "type": "Point",
        "coordinates": [
          -139.87606416323666,
          1.2829129899969594
        ]
      }
    },
    {
      "type": "Feature",
      "properties": {
        "norad_id": 34883,
        "name": "COSMOS 2251 DEB",
        "group": "cosmos-2251-debris",
        "lat": -56.898955013153746,
        "lon": 31.283623740946897,
        "alt_km": 690.9954462254282,
        "timestamp": "2025-12-15T19:00:45.754065+00:00",
        "meta_object_name": "COSMOS 2251 DEB",
        "meta_object_id": "1993-036ACW",
        "meta_epoch": "2025-12-12T05:16:46.096608",
        "meta_mean_motion": 14.51477124,
        "meta_eccentricity": 0.00951451,
        "meta_inclination": 74.1989,
        "meta_ra_of_asc_node": 63.6857,
        "meta_arg_of_pericenter": 248.9733,
        "meta_mean_anomaly": 110.1233,
        "meta_ephemeris_type": 0,
        "meta_classification_type": "U",
        "meta_norad_cat_id": 34883,
        "meta_element_set_no": 999,
        "meta_rev_at_epoch": 86432,
        "meta_bstar": 0.0063651984,
        "meta_mean_motion_dot": 0.00027049,
        "meta_mean_motion_ddot": 0,
        "tle_line1": "1 34883U 93036ACW 25346.21997797  .00027049  00000+0  63652-2 0  9993",
        "tle_line2": "2 34883  74.1989  63.6857 0095145 248.9733 110.1233 14.51477124864321"
      },
      "geometry": {
        "type": "Point",
        "coordinates": [
          31.283623740946897,
          -56.898955013153746
        ]
      }
    },
    {
      "type": "Feature",
      "properties": {
        "norad_id": 34884,
        "name": "COSMOS 2251 DEB",
        "group": "cosmos-2251-debris",
        "lat": -59.84228354542663,
        "lon": 21.07095188447137,
        "alt_km": 605.158933349152,
        "timestamp": "2025-12-15T19:00:45.754076+00:00",
        "meta_object_name": "COSMOS 2251 DEB",
        "meta_object_id": "1993-036ACX",
        "meta_epoch": "2025-12-14T21:16:56.077824",
        "meta_mean_motion": 14.90187629,
        "meta_eccentricity": 0.00023957,
        "meta_inclination": 74.0179,
        "meta_ra_of_asc_node": 52.44,
        "meta_arg_of_pericenter": 69.2193,
        "meta_mean_anomaly": 51.407,
        "meta_ephemeris_type": 0,
        "meta_classification_type": "U",
        "meta_norad_cat_id": 34884,
        "meta_element_set_no": 999,
        "meta_rev_at_epoch": 87837,
        "meta_bstar": 0.0015053907,
        "meta_mean_motion_dot": 0.00014583,
        "meta_mean_motion_ddot": 0,
        "tle_line1": "1 34884U 93036ACX 25348.88676016  .00014583  00000+0  15054-2 0  9999",
        "tle_line2": "2 34884  74.0179  52.4400 0002395  69.2193  51.4070 14.90187629878378"
      },
      "geometry": {
        "type": "Point",
        "coordinates": [
          21.07095188447137,
          -59.84228354542663
        ]
      }
    },
    {
      "type": "Feature",
      "properties": {
        "norad_id": 34885,
        "name": "COSMOS 2251 DEB",
        "group": "cosmos-2251-debris",
        "lat": 58.36714561047571,
        "lon": -30.426867460541022,
        "alt_km": 723.5006148379243,
        "timestamp": "2025-12-15T19:00:45.754086+00:00",
        "meta_object_name": "COSMOS 2251 DEB",
        "meta_object_id": "1993-036ACY",
        "meta_epoch": "2025-12-14T16:20:13.916832",
        "meta_mean_motion": 14.51514954,
        "meta_eccentricity": 0.00151741,
        "meta_inclination": 74.0303,
        "meta_ra_of_asc_node": 179.3674,
        "meta_arg_of_pericenter": 264.8034,
        "meta_mean_anomaly": 167.2878,
        "meta_ephemeris_type": 0,
        "meta_classification_type": "U",
        "meta_norad_cat_id": 34885,
        "meta_element_set_no": 999,
        "meta_rev_at_epoch": 87507,
        "meta_bstar": 0.00065849049,
        "meta_mean_motion_dot": 2.61e-05,
        "meta_mean_motion_ddot": 0,
        "tle_line1": "1 34885U 93036ACY 25348.68071663  .00002610  00000+0  65849-3 0  9991",
        "tle_line2": "2 34885  74.0303 179.3674 0015174 264.8034 167.2878 14.51514954875074"
      },
      "geometry": {
        "type": "Point",
        "coordinates": [
          -30.426867460541022,
          58.36714561047571
        ]
      }
    },
    {
      "type": "Feature",
      "properties": {
        "norad_id": 34886,
        "name": "COSMOS 2251 DEB",
        "group": "cosmos-2251-debris",
        "lat": 71.78761825193315,
        "lon": -124.58223576716591,
        "alt_km": 439.2463508263663,
        "timestamp": "2025-12-15T19:00:45.754096+00:00",
        "meta_object_name": "COSMOS 2251 DEB",
        "meta_object_id": "1993-036ACZ",
        "meta_epoch": "2025-12-13T21:25:05.379168",
        "meta_mean_motion": 15.38859949,
        "meta_eccentricity": 0.00306549,
        "meta_inclination": 73.9501,
        "meta_ra_of_asc_node": 178.4925,
        "meta_arg_of_pericenter": 1.8054,
        "meta_mean_anomaly": 358.3257,
        "meta_ephemeris_type": 0,
        "meta_classification_type": "U",
        "meta_norad_cat_id": 34886,
        "meta_element_set_no": 999,
        "meta_rev_at_epoch": 63016,
        "meta_bstar": 0.0017695785,
        "meta_mean_motion_dot": 0.00069737,
        "meta_mean_motion_ddot": 0,
        "tle_line1": "1 34886U 93036ACZ 25347.89242337  .00069737  00000+0  17696-2 0  9991",
        "tle_line2": "2 34886  73.9501 178.4925 0030654   1.8054 358.3257 15.38859949630168"
      },
      "geometry": {
        "type": "Point",
        "coordinates": [
          -124.58223576716591,
          71.78761825193315
        ]
      }
    }
  ]
}